#dP2021  3 16 12  0  0.00000000      96 __u+U ITR00 EXT  IAC
## 2149 216000.00000000   900.00000000 59289 0.5000000000000
+  116   C06C07C08C09C10C11C12C13C14C16C19C20C21C22C23C24C25
+        C26C27C28C29C30C32C33C34C35C36C37C38C39C40C41C42C43
+        C44C45C46E01E02E03E04E05E07E08E09E11E12E13E14E15E18
+        E19E21E24E25E26E27E30E31E33G01G02G03G04G05G06G07G08
+        G09G10G11G12G13G14G15G16G17G18G19G20G21G22G23G24G25
+        G26G27G28G29G30G31G32J01J02J03R01R02R03R04R05R07R08
+        R09R11R12R13R14R15R16R17R18R19R20R21R22R24  0  0  0
++        10 11  9 10  9  8 10  9  9 15  9  8 10  8 10  9  8
++         7  9 10  8  8  9  9  8  8  9 11 10 11 11  8 11  8
++         9  9  9  8  9  8  9  8  8  8  9  9  9  7  8  9  8
++         8  8  8  9  9  9  8  9  8  7  8  7  7  9  8  8  6
++         7  7  8  8  8  8  8  9  8  8  9  7  8  8  8  9  8
++         8  7  8  8  8  7  8 11  9  9  9  9  9  8  9  8  8
++        10  8 10  9  9  9  9  8  8  9  9  9 10  8  0  0  0
%c M  cc GPS ccc cccc cccc cccc cccc ccccc ccccc ccccc ccccc
%c cc cc ccc ccc cccc cccc cccc cccc ccccc ccccc ccccc ccccc
%f  0.0000000  0.000000000  0.00000000000  0.000000000000000
%f  0.0000000  0.000000000  0.00000000000  0.000000000000000
%i    0    0    0    0      0      0      0      0         0
%i    0    0    0    0      0      0      0      0         0
/* IAC                                ULTRA-RAPID PREDICTION
/* S/V CLOCKS ARE ALIGNED TO GNSS TIME                      
/* G:C1WC2W R:C1PC2P E:C1XC5X C:C2IC6I J:C1CC2S             
/* PCV:IGS14_2134 OL/AL:FES2004  NONE     YN ORB:CoN CLK:CoN
*  2021 03 16 23 45  0.00000000
PC06 -16330.754609  21278.703121  32875.134516    183.958160
PC07 -22092.193169  36134.771237  -2490.821441    -24.439588
PC08  -5817.997390  30154.882347 -28597.673124   -900.019893
PC09    393.878562  25030.746665  34246.293142    663.543425
PC10 -10940.052869  38040.320871 -14937.536517    -70.678773
PC11  17027.999385  15921.625468 -15250.349877   -864.788141
PC12  -2357.617012  15235.761698 -23223.468714    870.192423
PC13   4506.519220  38067.845052 -17157.928873    183.046661
PC14   6307.070888  15517.334960  22357.410034    228.488771
PC16 -11805.999952  22132.524319  33964.570517   -737.895694
PC19 -14653.245443  -7509.139439 -22502.566455    764.164428
PC20   1553.263968 -20041.668438 -19323.741242   -931.194707
PC21 -17657.318235  21169.662155   4432.882101   -888.741318
PC22 -22875.539158   9720.842798 -12707.550305   -919.767147
PC23  16274.570749  -1472.044323 -22622.823714   -878.139263
PC24   4700.849365  27390.590698   2349.104132   -784.912888
PC25  15643.402333  17595.728706 -14971.810731   -947.414696
PC26  -7033.275319  20981.291345  16970.790754    934.414843
PC27  12964.039271 -11684.212793  21763.726764    499.777693
PC28  25975.113226    740.985050  10176.434402    -97.621437
PC29 -24193.792859 -11797.498993   7343.992310    365.925174
PC30  -7694.610469 -16963.658491  20767.778325    452.895315
PC32  17516.414152 -21269.300267  -4372.743863   -914.207006
PC33  14642.499399   7564.727043  22527.478699   -946.708088
PC34   8456.157469  17033.417483 -20439.680839   -717.431932
PC35 -26075.050094    -21.669244  -9891.145290   -371.452520
PC36 -15126.417379 -18265.716701  14727.968140   -741.073603
PC37   8029.499742 -20201.889386 -17497.418413   -877.620837
PC38  -4683.355172  33162.469514 -25524.006424    136.244523
PC39 -10245.888287  22841.212669  33926.477802     29.420847
PC40 -17423.237732  35355.687793 -15182.616640    141.625288
PC41  22841.158611  -9478.171877  12989.231020   -932.815546
PC42  -2164.684570  20405.740973  18965.431548   -940.184488
PC43  23883.456766  12204.152401  -7763.620102   -642.712497
PC44 -12743.754602  12162.455654 -21640.047154     89.431305
PC45 -16141.921247   1541.212864  22710.670480    388.589200
PC46  -5371.521263 -27364.222212  -1502.866656    359.705776
PE01 -11759.272656  25963.276091   7965.650753  -1067.030602
PE02  11708.731815 -26036.340590  -7868.571889    205.512089
PE03  17858.415322 -17246.068702 -16110.126916   -409.671089
PE04   3045.722770  16898.621021  24117.669092   -730.398641
PE05  28603.860396  -7470.894400   1482.396583   -296.475264
PE07 -22557.188576  -6546.822853 -18010.993129   -513.653518
PE08  -3451.311079 -16644.045018 -24229.382844   6032.108775
PE09  22652.542053   6237.084365  18001.088426   5732.446730
PE11  23425.723121  17481.215259   4744.875695   6199.376369
PE12  11420.317707  23305.576679 -14251.087650   5306.774391
PE13 -23346.078584 -17661.067653  -4332.395516    413.647151
PE14   4939.154053 -14600.256271  17592.099661  -1364.248455
PE15 -11522.711735 -23224.876785  14284.113209    824.299681
PE18  -6907.990592  20262.550976 -24531.537372  -1491.861296
PE19 -19838.104052  16512.290103  14493.449720    228.602889
PE21 -17425.754818   9934.546549  21758.719369   -654.006544
PE24  12908.835881  13206.195290 -23142.611766   -796.530606
PE25  17439.750589  -9744.262212 -21844.621790   -528.634223
PE26 -21139.070202  -1026.787673 -20684.481020   2033.821676
PE27 -13227.874364 -12446.891492  23373.038222      8.941198
PE30   -575.938937 -27684.043559  10474.055022   3101.289767
PE31   1287.333688  27348.662821 -11239.373685   -479.238041
PE33  -7034.008179  15122.212504 -24446.302115   -466.600522
PG01  19205.932579   9777.179909  15505.393115    739.576520
PG02 -12937.308010 -22543.487933   6013.350180   -586.799796
PG03  16464.078062  -1624.211894  20674.491212   -110.054990
PG04  26065.547522   2029.900899   4855.342678   -186.594276
PG05  -8066.863434 -16249.734158 -19488.822994    -36.421358
PG06  -2245.010056 -21397.610001  15600.232391      1.237673
PG07  14833.187423  -5017.785338 -21164.163320     92.200129
PG08  22927.292114   6101.201814 -12243.092198    -13.994420
PG09  24931.776112  -6922.600569  -6103.016168   -331.636343
PG10 -11494.451031  23772.002322   -584.733763    -82.469244
PG11  24421.706703   8450.483568   4801.814828      3.102396
PG12 -14900.677740  -3237.205627  21478.921201    -14.920069
PG13 -14819.133176 -13030.619205 -17971.765297    108.661133
PG14  13391.952629 -22861.751688  -1757.290005     99.833263
PG15 -23635.603561  -4383.056702 -12030.804387   -162.654439
PG16   4048.335155  18380.677702 -18788.619087   -295.103553
PG17  12558.867229 -13403.075986  19612.584366    410.852031
PG18 -12249.304506   8802.841416 -21865.810553    350.639244
PG19   3727.679784 -14435.314117  21689.542295    -25.425939
PG20 -15578.537115  16237.808496 -13869.770041    524.132237
PG21  20614.899996  14614.866719   9615.863080    103.687414
PG22  13791.707686   8327.810331  21327.617729   -658.941224
PG23 -16222.580747  17847.358037 -11097.202203    117.324537
PG24 -20594.427587 -13343.302977  10397.247367      0.979059
PG25 -17557.234425  11645.507873  15741.033523    100.218490
PG26  -1947.413158  24248.273404 -10395.216908     59.054417
PG27  12438.216755  12556.055069 -20105.690694    -95.317536
PG28  12394.450352 -23570.725308   1858.778457    601.093637
PG29 -25252.757195   4847.537341  -6780.543085   -313.117337
PG30   5735.027597 -17128.803238 -19350.752889   -399.446141
PG31   3802.849461  22507.040249  13099.264265   -106.014682
PG32 -10185.522346  14803.688445  19605.145102     21.283687
PJ01 -29711.628052  29648.098733   8970.306449   -355.677973
PJ02 -28627.861164  25840.041148  21893.189628      3.496194
PJ03 -29901.610493  15759.265683 -20607.655539     -1.848969
PR01  21815.268241 -12689.343463   3662.113791     76.488916
PR02  11162.757278 -16242.777861 -16185.078798    471.037258
PR03  -5648.147529  -9374.222902 -22995.625539     32.514238
PR04 -18943.882923   2879.040506 -16804.269558     78.203111
PR05 -21704.791678  13325.032425  -1175.947130     68.275301
PR07   6350.451540   8953.274708  23065.499068    -42.558836
PR08  19025.357027  -2802.523422  16826.645603    -57.974708
PR09  -1514.859091  24701.775145   6336.179706    -16.773324
PR11  10884.073448   6997.199795 -21977.528173      2.215084
PR12   8911.483065 -12746.373994 -20206.034844    213.139104
PR13   1664.381433 -24496.009569  -6946.320793    -52.082236
PR14  -6658.463620 -21961.134340  11132.680223     62.080441
PR15 -10931.148876  -6698.328866  22066.860072    104.876423
PR16  -8503.138447  13715.402766  19680.271839    -12.605701
PR17 -16415.054040 -14898.334881  12658.063571    408.574134
PR18 -23086.479103 -10018.640808  -3946.653604     70.025847
PR19 -18021.933253   -801.851722 -18029.636544   -135.992236
PR20   -548.039341  11292.439425 -22861.290439    -45.397492
PR21  17186.570915  14806.489220 -11643.404014   -194.904185
PR22  23126.709234   9635.260752   5063.027147   -102.971423
PR24    -66.688817 -12004.967486  22526.104215     35.263299
EOF
